FENGYUN 1C DEB          
1 30873U 99025AXK 17345.58576080  .00000088  00000-0  61483-4 0  9997
2 30873  98.7991  12.3577 0112097  48.1278 106.3538 14.17023852557760
